{
  "norad_id": 43508,
  "name": "COSMOS 2527 [GLONASS-M]",
  "history": [
    {
      "epoch": "2026-03-28T08:55:12.126432",
      "apogee_km": 19153.6352771662,
      "perigee_km": 19106.145961825878,
      "latitude_deg": -50.69328208381412,
      "longitude_deg": 6.480140479980037,
      "semi_major_axis_km": 25508.02761949604,
      "eccentricity": 0.00093087,
      "inclination_deg": 65.5335,
      "raan_deg": 76.6017,
      "arg_perigee_deg": 247.7954,
      "mean_anomaly_deg": 112.1166,
      "mean_motion_rev_day": 2.1310196
    }
  ]
}